FLOCK 4BE-27            
1 60513U 24149AX  26068.75339182  .00011439  00000+0  36576-3 0  9992
2 60513  97.3862 150.6783 0002732 305.8980  54.2008 15.32593322 86906
STARLINK-35290          
1 65846U 25221Z   26068.41944464  .00024009  00000+0  81994-3 0  9997
2 65846  53.1587  89.4805 0001163  94.7461 265.3672 15.30207843 24691
