[{"OBJECT_NAME":"FLOCK 4BE-27","OBJECT_ID":"2024-149AX","EPOCH":"2026-03-09T18:04:53.053248","MEAN_MOTION":15.32593322,"ECCENTRICITY":0.00027324,"INCLINATION":97.3862,"RA_OF_ASC_NODE":150.6783,"ARG_OF_PERICENTER":305.898,"MEAN_ANOMALY":54.2008,"EPHEMERIS_TYPE":0,"CLASSIFICATION_TYPE":"U","NORAD_CAT_ID":60513,"ELEMENT_SET_NO":999,"REV_AT_EPOCH":8690,"BSTAR":0.00036576028,"MEAN_MOTION_DOT":0.00011439,"MEAN_MOTION_DDOT":0},{"OBJECT_NAME":"STARLINK-35290","OBJECT_ID":"2025-221Z","EPOCH":"2026-03-09T10:04:00.016896","MEAN_MOTION":15.30207843,"ECCENTRICITY":0.00011631,"INCLINATION":53.1587,"RA_OF_ASC_NODE":89.4805,"ARG_OF_PERICENTER":94.7461,"MEAN_ANOMALY":265.3672,"EPHEMERIS_TYPE":0,"CLASSIFICATION_TYPE":"U","NORAD_CAT_ID":65846,"ELEMENT_SET_NO":999,"REV_AT_EPOCH":2469,"BSTAR":0.00081993679,"MEAN_MOTION_DOT":0.00024009,"MEAN_MOTION_DDOT":0}]
